satname,norad_id,inclination_deg,eccentricity,mean_motion_rev_per_day,perigee_km,apogee_km,l1,l2
STARLINK-1452,45669,53.0333,0.0004368,15.38250388,448.2998631805631,454.2660444522171,1 45669U 20035N   26030.50041024  .00131118  00000+0  33788-2 0  9992,2 45669  53.0333 202.8020 0004368 212.1933 147.8803 15.38250388313477
STARLINK-1453,45670,53.0503,0.0005461,15.44270203,429.80343295567855,437.24312831418774,1 45670U 20035P   26030.50003471  .00145724  00000+0  30678-2 0  9991,2 45670  53.0503 196.1577 0005461 196.9574 180.9780 15.44270203  5919
STARLINK-1454,45671,53.0536,7.98e-05,15.42869602,437.10112740988734,438.1889262213663,1 45671U 20035Q   26030.50003471  .00155613  00000+0  34306-2 0  9992,2 45671  53.0536 235.2954 0000798 120.2119 198.4521 15.42869602  5768
STARLINK-1456,45673,53.0513,0.0006128,15.41804479,436.605056766919,444.9623259662576,1 45673U 20035S   26030.50003471  .00130743  00000+0  29966-2 0  9997,2 45673  53.0513 228.5981 0006128 154.8092 269.4525 15.41804479  5916
STARLINK-1457,45674,53.0497,0.000138,15.66395639,368.2967661953844,370.1590389084886,1 45674U 20035T   26030.50003471  .00261229  00000+0  23965-2 0  9995,2 45674  53.0497 212.1144 0001380 274.1349 175.6588 15.66395639  5966
STARLINK-1458,45675,53.053,8.32e-05,15.34961389,460.4661632310217,461.6042014821651,1 45675U 20035U   26030.50003471  .00883308  00000+0  23582-1 0  9998,2 45675  53.0530 236.0733 0000832 122.5843  97.2735 15.34961389  5824
STARLINK-1460,45676,53.0554,0.0001184,15.06377325,546.4610849215796,548.1010239168663,1 45676U 20035V   26029.88832397  .00002435  00000+0  18238-3 0  9993,2 45676  53.0554 240.8052 0001184 100.7106 259.4016 15.06377325312846
STARLINK-1392,45677,53.0527,0.0001107,15.06400145,546.4444774980293,547.9777495703656,1 45677U 20035W   26030.29747442  .00004447  00000+0  31725-3 0  9998,2 45677  53.0527 238.9666 0001107  99.9615 260.1499 15.06400145312947
STARLINK-1394,45679,53.0522,0.0006291,15.41705606,436.78526350878474,445.3651963364746,1 45679U 20035Y   26029.87467430  .00025947  00000+0  61251-3 0  9993,2 45679  53.0522 221.4879 0006291 152.6478 207.4859 15.41705606313157
STARLINK-1402,45685,53.0506,0.0009145,15.38540979,444.1782735803554,456.6677098051614,1 45685U 20035AE  26030.50003471  .00145624  00000+0  37057-2 0  9994,2 45685  53.0506 204.4096 0009145 142.5592 352.3366 15.38540979  5926
STARLINK-1404,45686,53.1558,0.0001497,15.29339191,476.76016367795455,478.8128271724845,1 45686U 20035AF  26030.50003471  .00050855  00000+0  17635-2 0  9996,2 45686  53.1558 227.0091 0001497  88.0348  25.7057 15.29339191  5713
STARLINK-1413,45689,53.1559,0.0001067,15.29329704,477.08331855970664,478.54637868420195,1 45689U 20035AJ  26030.50003471  .00072896  00000+0  25158-2 0  9997,2 45689  53.1559 226.9416 0001067  96.4387 313.2093 15.29329704  5821
STARLINK-1417,45693,53.0509,0.0007718,15.10177396,530.3224541591953,540.9945889262499,1 45693U 20035AN  26030.50815042  .00024093  00000+0  14710-2 0  9995,2 45693  53.0509 227.0482 0007718 125.8453 234.3256 15.10177396313122
STARLINK-1420,45695,53.0539,0.0001162,15.44773334,431.25282370644527,432.835509809599,1 45695U 20035AQ  26030.50003471  .01030767  00000+0  19971-1 0  9991,2 45695  53.0539 205.4116 0001162  76.3816   7.7939 15.44773334  5423
STARLINK-1422,45696,53.138,0.0001462,15.25599022,487.98330094969606,489.9912480875655,1 45696U 20035AR  26030.50003471  .00833850  00000+0  29845-1 0  9996,2 45696  53.1380 226.8606 0001462  92.4089 323.8273 15.25599022  5820
STARLINK-1351,45697,53.0544,0.0001628,15.42655932,437.1646601880202,439.3840837307307,1 45697U 20035AS  26030.50003471  .00200943  00000+0  44326-2 0  9990,2 45697  53.0544 204.5045 0001628 106.8460 166.3456 15.42655932  5789
STARLINK-1398,45699,53.0426,0.0003323,15.75552839,340.8250205800232,345.29192709193376,1 45699U 20035AU  26030.50003471  .00146455  00000+0  93000-3 0  9993,2 45699  53.0426 132.1035 0003323 296.9483 188.3603 15.75552839  5994
STARLINK-1400,45700,53.0533,7.51e-05,15.43288812,435.8989321301897,436.9224771954305,1 45700U 20035AV  26030.50003471  .00119789  00000+0  26182-2 0  9992,2 45700  53.0533 205.3588 0000751  90.4720 237.5595 15.43288812  5826
STARLINK-1403,45701,53.0572,0.0001618,15.06400825,546.0885084456904,548.3295504208163,1 45701U 20035AW  26030.52506035  .00000392  00000+0  45187-4 0  9996,2 45701  53.0572 207.9481 0001618  98.7891 261.3282 15.06400825313394
STARLINK-1407,45703,53.0367,0.0009904,15.53462475,399.90608167949995,413.3453396567911,1 45703U 20035AY  26030.50003471  .00088515  00000+0  13613-2 0  9992,2 45703  53.0367 140.8308 0009904 330.5427  85.2187 15.53462475  5946
STARLINK-1411,45706,53.0454,0.0001787,15.55270049,400.15624634619417,402.57924134164386,1 45706U 20035BB  26030.40770647  .00091534  00000+0  13195-2 0  9990,2 45706  53.0454 167.4887 0001787 330.6923  29.3986 15.55270049313951
STARLINK-1423,45710,53.0533,0.0001672,15.45072755,430.02578918536346,432.3028195415418,1 45710U 20035BF  26030.50003471  .00239258  00000+0  48383-2 0  9994,2 45710  53.0533 204.9754 0001672  83.3735 143.1510 15.45072755  5825
STARLINK-1433,45711,53.0542,8.09e-05,15.47038707,424.84390885383254,425.9447202205247,1 45711U 20035BG  26030.50003471  .00113915  00000+0  21931-2 0  9996,2 45711  53.0542 204.5838 0000809  76.3906  88.7559 15.47038707  5714
STARLINK-1434,45712,53.0499,0.0002291,15.2246361,496.8368793891714,499.987714276981,1 45712U 20035BH  26030.50003471  .00066309  00000+0  28169-2 0  9991,2 45712  53.0499 196.3806 0002291 107.2564 339.7696 15.22463610  5708
STARLINK-1465,45731,53.0723,9.34e-05,15.4091588,442.7678159522975,444.04207998817765,1 45731U 20038B   26030.50003471  .00064812  00000+0  15489-2 0  9993,2 45731  53.0723  45.4797 0000934  93.4471 155.7819 15.40915880  5824
STARLINK-1471,45735,53.0504,0.0003227,15.45620927,427.3573699116905,431.7510538198276,1 45735U 20038F   26030.22105344  .00034776  00000+0  71617-3 0  9990,2 45735  53.0504 325.9539 0003227 102.6050 257.5317 15.45620927311575
STARLINK-1474,45738,53.0251,0.0005406,15.94593589,285.8425517207934,293.0515435931193,1 45738U 20038J   26030.50003471  .00358956  61745-4  92845-3 0  9995,2 45738  53.0251 258.9358 0005406 192.9352 201.2644 15.94593589  6048
STARLINK-1480,45741,53.0533,0.0008597,15.41582119,435.5765996689752,447.3021793130656,1 45741U 20038M   26030.50003471  .00161062  00000+0  37002-2 0  9994,2 45741  53.0533  39.1504 0008597  41.1729 303.0321 15.41582119  5764
STARLINK-1500,45744,53.0385,0.0004218,15.32592872,465.1919483270776,470.96741672045573,1 45744U 20038Q   26030.35993073  .00036162  00000+0  11390-2 0  9990,2 45744  53.0385  12.2437 0004218 101.1665 258.9809 15.32592872310935
STARLINK-1504,45746,53.0251,0.0004527,15.50496535,412.19994439777565,418.35069991425553,1 45746U 20038S   26030.10853453  .00040048  00000+0  69449-3 0  9999,2 45746  53.0251 327.9318 0004527  85.8285 274.3240 15.50496535311528
STARLINK-1506,45747,53.0747,0.000445,15.25025076,487.6534994111571,493.76677336254215,1 45747U 20038T   26030.27003394  .00034118  00000+0  13555-2 0  9996,2 45747  53.0747  19.9089 0004450 101.2878 258.8619 15.25025076310827
STARLINK-1464,45751,53.0542,0.0001547,15.38771713,448.6840878790117,450.7966331343523,1 45751U 20038X   26030.50003471  .00099156  00000+0  25257-2 0  9998,2 45751  53.0542  25.6145 0001547  74.9843 193.1933 15.38771713  5825
STARLINK-1477,45754,53.0526,4.93e-05,15.11937779,529.9503028432955,530.6314738330848,1 45754U 20038AA  26030.39076567  .00044879  00000+0  25893-2 0  9992,2 45754  53.0526  26.7199 0000493 304.2042  55.8903 15.11937779310737
STARLINK-1478,45755,53.0549,0.0004495,15.46984346,422.495438607717,428.6119565448371,1 45755U 20038AB  26030.50003471  .00168393  00000+0  32205-2 0  9993,2 45755  53.0549  21.4607 0004495  72.9005 334.7861 15.46984346  5848
STARLINK-1484,45756,53.0053,0.0004025,15.82189481,321.5524760755743,326.94789776104426,1 45756U 20038AC  26030.50003471  .00241267  00000+0  11211-2 0  9990,2 45756  53.0053 251.4415 0004025 170.8326 143.2700 15.82189481  6027
STARLINK-1493,45759,53.0539,0.0001671,15.35372165,458.672663863641,460.95790751751974,1 45759U 20038AF  26030.50003471  .01602861  00000+0  41825-1 0  9998,2 45759  53.0539  26.2513 0001671  91.1183  92.4156 15.35372165  5813
STARLINK-1494,45760,53.0514,0.000206,15.66819931,366.6200252100516,369.39943766340275,1 45760U 20038AG  26030.23990619  .00089703  00000+0  82954-3 0  9992,2 45760  53.0514 341.7361 0002060 119.9010 240.2210 15.66819931311359
STARLINK-1502,45764,53.057,0.0001605,15.26493616,485.20230689568507,487.40579247263395,1 45764U 20038AL  26030.50003471  .00707515  00000+0  24967-1 0  9993,2 45764  53.0570  26.8480 0001605  97.5212 322.0637 15.26493616  5825
STARLINK-1470,45772,53.0481,0.0001331,15.24790108,490.5014338795454,492.3301088272792,1 45772U 20038AU  26030.16893583  .00059990  00000+0  23819-2 0  9998,2 45772  53.0481 352.6130 0001331 124.0834 236.0290 15.24790108311192
STARLINK-1482,45773,53.0937,0.0001371,15.15554485,518.3500662517599,520.2413422992713,1 45773U 20038AV  26030.50003471  .01191490  00000+0  56924-1 0  9991,2 45773  53.0937   7.8716 0001371  52.3659  35.5082 15.15554485  5816
STARLINK-1496,45780,53.0545,0.0007859,15.41317097,436.8609763879549,447.5812152429571,1 45780U 20038BC  26030.50003471  .00112320  00000+0  26231-2 0  9992,2 45780  53.0545 359.6104 0007859  70.9448  99.9110 15.41317097  5807
STARLINK-1497,45781,53.0252,0.0006302,15.99147732,272.5882205630787,280.97608066051,1 45781U 20038BD  26030.50003471  .00661017  20505-3  13263-2 0  9992,2 45781  53.0252 271.1105 0006302 168.6176  20.7119 15.99147732  6034
STARLINK-1513,45786,53.0844,0.0001888,15.13659796,523.7469847281936,526.3536282551258,1 45786U 20038BJ  26030.50003471  .01330831  00000+0  67356-1 0  9990,2 45786  53.0844   7.9595 0001888  62.6915 357.0102 15.13659796  5820
